[{"OBJECT_NAME":"STARLINK-35483","OBJECT_ID":"2025-245U","EPOCH":"2026-03-09T21:47:16.749600","MEAN_MOTION":15.30222685,"ECCENTRICITY":9.778e-5,"INCLINATION":53.1589,"RA_OF_ASC_NODE":282.6176,"ARG_OF_PERICENTER":81.421,"MEAN_ANOMALY":278.6901,"EPHEMERIS_TYPE":0,"CLASSIFICATION_TYPE":"U","NORAD_CAT_ID":66252,"ELEMENT_SET_NO":999,"REV_AT_EPOCH":2124,"BSTAR":0.0012960184,"MEAN_MOTION_DOT":0.0003825,"MEAN_MOTION_DDOT":0},{"OBJECT_NAME":"COSMOS 1953","OBJECT_ID":"1988-050A","EPOCH":"2026-03-09T18:09:26.993952","MEAN_MOTION":15.28528086,"ECCENTRICITY":0.00124769,"INCLINATION":82.5105,"RA_OF_ASC_NODE":158.18,"ARG_OF_PERICENTER":122.2454,"MEAN_ANOMALY":237.9996,"EPHEMERIS_TYPE":0,"CLASSIFICATION_TYPE":"U","NORAD_CAT_ID":19210,"ELEMENT_SET_NO":999,"REV_AT_EPOCH":3779,"BSTAR":0.00029210954,"MEAN_MOTION_DOT":8.158e-5,"MEAN_MOTION_DDOT":0}]
